{
  "type": "FeatureCollection",
  "features": [
    {
      "type": "Feature",
      "properties": {
        "norad_id": 29961,
        "name": "FENGYUN 1C DEB",
        "group": "fengyun-1c-debris",
        "lat": -44.61765996682875,
        "lon": -119.74382665842403,
        "alt_km": 757.7537465394116,
        "timestamp": "2025-12-09T23:33:24.127350+00:00",
        "meta_object_name": "FENGYUN 1C DEB",
        "meta_object_id": "1999-025KK",
        "meta_epoch": "2025-12-09T11:58:47.930304",
        "meta_mean_motion": 14.26209941,
        "meta_eccentricity": 0.00742769,
        "meta_inclination": 98.9486,
        "meta_ra_of_asc_node": 230.8191,
        "meta_arg_of_pericenter": 314.3383,
        "meta_mean_anomaly": 45.1724,
        "meta_ephemeris_type": 0,
        "meta_classification_type": "U",
        "meta_norad_cat_id": 29961,
        "meta_element_set_no": 999,
        "meta_rev_at_epoch": 98263,
        "meta_bstar": 0.00036330393,
        "meta_mean_motion_dot": 8.49e-06,
        "meta_mean_motion_ddot": 0,
        "tle_line1": "1 29961U 99025KK  25343.49916586  .00000849  00000+0  36330-3 0  9995",
        "tle_line2": "2 29961  98.9486 230.8191 0074276 314.3383  45.1724 14.26209941982637"
      },
      "geometry": {
        "type": "Point",
        "coordinates": [
          -119.74382665842403,
          -44.61765996682875
        ]
      }
    },
    {
      "type": "Feature",
      "properties": {
        "norad_id": 29962,
        "name": "FENGYUN 1C DEB",
        "group": "fengyun-1c-debris",
        "lat": -42.47103971416123,
        "lon": 0.3597102626623031,
        "alt_km": 871.9807277150203,
        "timestamp": "2025-12-09T23:33:24.127360+00:00",
        "meta_object_name": "FENGYUN 1C DEB",
        "meta_object_id": "1999-025KL",
        "meta_epoch": "2025-12-09T12:33:01.039680",
        "meta_mean_motion": 14.07154578,
        "meta_eccentricity": 0.01095881,
        "meta_inclination": 98.7686,
        "meta_ra_of_asc_node": 351.7925,
        "meta_arg_of_pericenter": 230.3352,
        "meta_mean_anomaly": 283.5386,
        "meta_ephemeris_type": 0,
        "meta_classification_type": "U",
        "meta_norad_cat_id": 29962,
        "meta_element_set_no": 999,
        "meta_rev_at_epoch": 96952,
        "meta_bstar": 0.00019361482,
        "meta_mean_motion_dot": 2.99e-06,
        "meta_mean_motion_ddot": 0,
        "tle_line1": "1 29962U 99025KL  25343.52292870  .00000299  00000+0  19361-3 0  9997",
        "tle_line2": "2 29962  98.7686 351.7925 0109588 230.3352 283.5386 14.07154578969523"
      },
      "geometry": {
        "type": "Point",
        "coordinates": [
          0.3597102626623031,
          -42.47103971416123
        ]
      }
    },
    {
      "type": "Feature",
      "properties": {
        "norad_id": 29963,
        "name": "FENGYUN 1C DEB",
        "group": "fengyun-1c-debris",
        "lat": -75.9395713215431,
        "lon": -92.89957812283134,
        "alt_km": 768.495912302652,
        "timestamp": "2025-12-09T23:33:24.127371+00:00",
        "meta_object_name": "FENGYUN 1C DEB",
        "meta_object_id": "1999-025KM",
        "meta_epoch": "2025-12-09T15:39:17.855136",
        "meta_mean_motion": 14.29443911,
        "meta_eccentricity": 0.00517221,
        "meta_inclination": 98.9981,
        "meta_ra_of_asc_node": 227.5129,
        "meta_arg_of_pericenter": 311.1837,
        "meta_mean_anomaly": 76.6638,
        "meta_ephemeris_type": 0,
        "meta_classification_type": "U",
        "meta_norad_cat_id": 29963,
        "meta_element_set_no": 999,
        "meta_rev_at_epoch": 98099,
        "meta_bstar": 0.0012402343,
        "meta_mean_motion_dot": 3.164e-05,
        "meta_mean_motion_ddot": 0,
        "tle_line1": "1 29963U 99025KM  25343.65228999  .00003164  00000+0  12402-2 0  9995",
        "tle_line2": "2 29963  98.9981 227.5129 0051722 311.1837  76.6638 14.29443911980993"
      },
      "geometry": {
        "type": "Point",
        "coordinates": [
          -92.89957812283134,
          -75.9395713215431
        ]
      }
    },
    {
      "type": "Feature",
      "properties": {
        "norad_id": 29964,
        "name": "FENGYUN 1C DEB",
        "group": "fengyun-1c-debris",
        "lat": 77.25100101872899,
        "lon": 146.10726353614305,
        "alt_km": 967.8881635050429,
        "timestamp": "2025-12-09T23:33:24.127382+00:00",
        "meta_object_name": "FENGYUN 1C DEB",
        "meta_object_id": "1999-025KN",
        "meta_epoch": "2025-12-09T12:53:55.263552",
        "meta_mean_motion": 14.0272925,
        "meta_eccentricity": 0.01308987,
        "meta_inclination": 98.371,
        "meta_ra_of_asc_node": 186.2985,
        "meta_arg_of_pericenter": 278.6397,
        "meta_mean_anomaly": 79.996,
        "meta_ephemeris_type": 0,
        "meta_classification_type": "U",
        "meta_norad_cat_id": 29964,
        "meta_element_set_no": 999,
        "meta_rev_at_epoch": 96272,
        "meta_bstar": 0.0014779154,
        "meta_mean_motion_dot": 2.422e-05,
        "meta_mean_motion_ddot": 0,
        "tle_line1": "1 29964U 99025KN  25343.53744518  .00002422  00000+0  14779-2 0  9998",
        "tle_line2": "2 29964  98.3710 186.2985 0130898 278.6397  79.9960 14.02729250962728"
      },
      "geometry": {
        "type": "Point",
        "coordinates": [
          146.10726353614305,
          77.25100101872899
        ]
      }
    },
    {
      "type": "Feature",
      "properties": {
        "norad_id": 29965,
        "name": "FENGYUN 1C DEB",
        "group": "fengyun-1c-debris",
        "lat": -75.91460770222969,
        "lon": 119.7145340012997,
        "alt_km": 1022.1099519958107,
        "timestamp": "2025-12-09T23:33:24.127392+00:00",
        "meta_object_name": "FENGYUN 1C DEB",
        "meta_object_id": "1999-025KP",
        "meta_epoch": "2025-12-09T11:00:07.121664",
        "meta_mean_motion": 13.95773219,
        "meta_eccentricity": 0.01462122,
        "meta_inclination": 98.9623,
        "meta_ra_of_asc_node": 338.1775,
        "meta_arg_of_pericenter": 76.9493,
        "meta_mean_anomaly": 75.1298,
        "meta_ephemeris_type": 0,
        "meta_classification_type": "U",
        "meta_norad_cat_id": 29965,
        "meta_element_set_no": 999,
        "meta_rev_at_epoch": 96230,
        "meta_bstar": 0.00041354027,
        "meta_mean_motion_dot": 5.75e-06,
        "meta_mean_motion_ddot": 0,
        "tle_line1": "1 29965U 99025KP  25343.45841576  .00000575  00000+0  41354-3 0  9999",
        "tle_line2": "2 29965  98.9623 338.1775 0146212  76.9493  75.1298 13.95773219962307"
      },
      "geometry": {
        "type": "Point",
        "coordinates": [
          119.7145340012997,
          -75.91460770222969
        ]
      }
    },
    {
      "type": "Feature",
      "properties": {
        "norad_id": 29966,
        "name": "FENGYUN 1C DEB",
        "group": "fengyun-1c-debris",
        "lat": 13.614925351630976,
        "lon": 13.038160774568432,
        "alt_km": 835.2822599096626,
        "timestamp": "2025-12-09T23:33:24.127403+00:00",
        "meta_object_name": "FENGYUN 1C DEB",
        "meta_object_id": "1999-025KQ",
        "meta_epoch": "2025-12-09T12:40:29.034048",
        "meta_mean_motion": 14.25744243,
        "meta_eccentricity": 0.00397387,
        "meta_inclination": 99.4916,
        "meta_ra_of_asc_node": 190.2254,
        "meta_arg_of_pericenter": 354.5161,
        "meta_mean_anomaly": 5.5576,
        "meta_ephemeris_type": 0,
        "meta_classification_type": "U",
        "meta_norad_cat_id": 29966,
        "meta_element_set_no": 999,
        "meta_rev_at_epoch": 97997,
        "meta_bstar": 0.00064970331,
        "meta_mean_motion_dot": 1.505e-05,
        "meta_mean_motion_ddot": 0,
        "tle_line1": "1 29966U 99025KQ  25343.52811382  .00001505  00000+0  64970-3 0  9993",
        "tle_line2": "2 29966  99.4916 190.2254 0039738 354.5161   5.5576 14.25744243979975"
      },
      "geometry": {
        "type": "Point",
        "coordinates": [
          13.038160774568432,
          13.614925351630976
        ]
      }
    },
    {
      "type": "Feature",
      "properties": {
        "norad_id": 29967,
        "name": "FENGYUN 1C DEB",
        "group": "fengyun-1c-debris",
        "lat": 2.9696125948148504,
        "lon": 60.102200648374186,
        "alt_km": 790.3603031267576,
        "timestamp": "2025-12-09T23:33:24.127413+00:00",
        "meta_object_name": "FENGYUN 1C DEB",
        "meta_object_id": "1999-025KR",
        "meta_epoch": "2025-12-07T16:35:37.538880",
        "meta_mean_motion": 14.2354236,
        "meta_eccentricity": 0.00756516,
        "meta_inclination": 98.8659,
        "meta_ra_of_asc_node": 58.2588,
        "meta_arg_of_pericenter": 307.2531,
        "meta_mean_anomaly": 205.2875,
        "meta_ephemeris_type": 0,
        "meta_classification_type": "U",
        "meta_norad_cat_id": 29967,
        "meta_element_set_no": 999,
        "meta_rev_at_epoch": 97150,
        "meta_bstar": 0.0024744814,
        "meta_mean_motion_dot": 5.758e-05,
        "meta_mean_motion_ddot": 0,
        "tle_line1": "1 29967U 99025KR  25341.69140670  .00005758  00000+0  24745-2 0  9994",
        "tle_line2": "2 29967  98.8659  58.2588 0075651 307.2531 205.2875 14.23542360971502"
      },
      "geometry": {
        "type": "Point",
        "coordinates": [
          60.102200648374186,
          2.9696125948148504
        ]
      }
    }
  ]
}